HST                     
1 20580U 90037B   25170.85915241  .00004909  00000+0  18095-3 0  9991
2 20580  28.4692  26.8031 0002532 117.2583 242.8270 15.25351516733098
POLAR                   
1 23802U 96013A   25171.03979918  .00000192  00000+0  00000+0 0  9996
2 23802  79.4467 231.0175 6127002 221.3014  70.9709  1.29846838140156
SWAS                    
1 25560U 98071A   25171.08956597  .00003496  00000+0  24518-3 0  9992
2 25560  69.8971  78.8387 0003265 107.0991 253.0529 15.06152911442685
CXO                     
1 25867U 99040B   25174.72340099  .00000421  00000+0  00000+0 0  9998
2 25867  49.6806 129.3424 8417199 309.6282 359.9322  0.37805442 15964
XMM-NEWTON              
1 25989U 99066A   25173.36070681  .00000043  00000+0  00000+0 0  9997
2 25989  66.2336 287.7379 4844669  71.2043   0.1462  0.50130249 21192
TERRA                   
1 25994U 99068A   25171.53466487  .00000310  00000+0  72685-4 0  9995
2 25994  97.9977 229.3838 0000991 317.4695 172.4778 14.60714593356929
CLUSTER II-FM7 (SAMBA)  
1 26410U 00041A   25173.77852631  .00002447  00000+0  00000+0 0  9990
2 26410 144.5130  12.1163 8395521 227.4150 359.7521  0.44839291 18697
CLUSTER II-FM5 (RUMBA)  
1 26463U 00045A   25170.15242016  .00005366  00000+0  00000+0 0  9994
2 26463 151.6473  77.5325 9082096 296.3035   1.1597  0.42920688 18574
CLUSTER II-FM8 (TANGO)  
1 26464U 00045B   25173.17684385  .00002463  00000+0  00000+0 0  9994
2 26464 144.7744  12.4794 8398716 227.6487 359.8378  0.44417041 18704
ODIN                    
1 26702U 01007A   25171.49003089  .00024981  00000+0  61102-3 0  9990
2 26702  97.4442 195.1626 0006729  68.9736 291.2229 15.40764432333262
TIMED                   
1 26998U 01055B   25171.16695279  .00000982  00000+0  95809-4 0  9999
2 26998  74.0682 243.2132 0001184 236.8271 123.2800 14.93991494276737
CORIOLIS                
1 27640U 03001A   25171.48184315  .00000094  00000+0  65073-4 0  9990
2 27640  98.7119 178.9160 0014202 169.9309 190.2155 14.19794076162891
SORCE                   
1 27651U 03004A   25171.35874465  .00002350  00000+0  19376-3 0  9994
2 27651  39.9901 161.3086 0018151 323.8505  36.1060 15.00611706217475
MOST                    
1 27843U 03031D   25171.00647450  .00000064  00000+0  49554-4 0  9993
2 27843  98.7047 178.7783 0009197 212.5083 147.5529 14.21211903139267
SCISAT 1                
1 27858U 03036A   25171.45408386  .00000523  00000+0  72627-4 0  9993
2 27858  73.9287 169.6771 0008638 309.1854  50.8554 14.80733021177898
SWIFT                   
1 28485U 04047A   25170.27148307  .00019863  00000+0  48578-3 0  9990
2 28485  20.5555  35.4558 0005838  50.6433 309.4524 15.38588855130418
HINODE (SOLAR-B)        
1 29479U 06041A   25170.98245900  .00000645  00000+0  12097-3 0  9990
2 29479  98.0712 187.2695 0017621   1.7973 358.3292 14.67934490  1721
SHIJIAN-6 02A (SJ-6 02A)
1 29505U 06046A   25171.56335030  .00004001  00000+0  23989-3 0  9996
2 29505  97.6815 205.3138 0002139 330.2919  29.8189 15.11545390 17541
SHIJIAN-6 02B (SJ-6 02B)
1 29506U 06046B   25171.53117260  .00000783  00000+0  67987-4 0  9997
2 29506  97.7024 198.9586 0004708 188.0399 172.0750 14.99879909 16505
FGRST (GLAST)           
1 33053U 08029A   25171.33241465  .00002184  00000+0  81025-4 0  9991
2 33053  25.5803 191.7649 0008704  27.4513 332.6483 15.21171523940625
SDO                     
1 36395U 10005A   25171.27698797 -.00000076  00000+0  00000+0 0  9995
2 36395  33.8910  91.8798 0000742  91.2729  83.3590  1.00270184 56436
CRYOSAT 2               
1 36508U 10013A   25171.59551619  .00000167  00000+0  40880-4 0  9991
2 36508  92.0087 189.9369 0003106  92.4840 267.6723 14.51820957805617
X-SAT                   
1 37389U 11015C   25171.57716700  .00000100  00000+0  60309-4 0  9999
2 37389  98.3116 161.7214 0013409 329.7635  30.2771 14.25044605736179
GCOM-W1 (SHIZUKU)       
1 38337U 12025A   25171.57786534  .00000403  00000+0  99480-4 0  9995
2 38337  98.2022 112.3092 0001435  74.5070  98.6914 14.57124473696379
NUSTAR                  
1 38358U 12031A   25171.58335648  .00018927  00000+0  12718-2 0  9999
2 38358   6.0259 216.3720 0008524 154.0190 291.1333 15.03917989709708
NEOSSAT                 
1 39089U 13009D   25171.58121654  .00000139  00000+0  63166-4 0  9998
2 39089  98.4074 355.4636 0009923 241.4856 118.5331 14.35616771644858
BRITE-AUSTRIA           
1 39091U 13009F   25170.92135657  .00000166  00000+0  71407-4 0  9993
2 39091  98.3885 354.5979 0009167 238.3793 121.6499 14.36315283645042
IRIS                    
1 39197U 13033A   25170.98740109  .00001012  00000+0  12569-3 0  9991
2 39197  97.9515   6.2613 0026291  64.3204 296.0721 14.84600853646613
HISAKI (SPRINT-A)       
1 39253U 13049A   25171.58023943  .00000111  00000+0  62964-4 0  9992
2 39253  29.7200 258.3727 0136988 325.3530  33.8181 13.55494374582323
CASSIOPE                
1 39265U 13055A   25171.57499686  .00019379 -63539-6  30189-3 0  9995
2 39265  80.9407 136.4206 0390235 177.2326 183.1193 14.98215751613040
STSAT-3                 
1 39422U 13066G   25171.53655571  .00002892  00000+0  23764-3 0  9994
2 39422  97.5629 144.3690 0018879 187.4400 172.6546 14.99800447629941
SWARM B                 
1 39451U 13067A   25171.58048335  .00002782  00000+0  10900-3 0  9992
2 39451  87.7437  91.9018 0002964  81.9488 278.2096 15.25356105628066
SWARM A                 
1 39452U 13067B   25171.52325899  .00006206  00000+0  14235-3 0  9990
2 39452  87.3413 189.4518 0003258  92.1068 268.0562 15.42501282650359
SWARM C                 
1 39453U 13067C   25171.52316669  .00006176  00000+0  14164-3 0  9993
2 39453  87.3413 188.0427 0003289  91.9658 268.1975 15.42504290650317
BRITE-CA1 (TORONTO)     
1 40020U 14033L   25171.31521267  .00000561  00000+0  93839-4 0  9997
2 40020  97.9272 303.2503 0079902 356.3114   3.7494 14.71644140588976
OCO 2                   
1 40059U 14035A   25171.54146105  .00000236  00000+0  62441-4 0  9994
2 40059  98.2017 113.0232 0001586  76.9898 283.1478 14.57135084583384
BRITE-PL2 (HEWELIUSZ)   
1 40119U 14049B   25171.54778701  .00001272  00000+0  12909-3 0  9993
2 40119  97.8914 276.8069 0013621 224.1331 135.8802 14.92605178587462
MMS 1                   
1 40482U 15011A   25171.58335648 -.00000433  00000+0  00000+0 0  9993
2 40482  65.0566 355.0663 8699434 159.7279  74.8972  0.28501773  1381
MMS 2                   
1 40483U 15011B   25171.58335648 -.00000433  00000+0  00000+0 0  9994
2 40483  65.0389 355.0724 8697419 159.7228  74.9055  0.28503335  1387
MMS 3                   
1 40484U 15011C   25171.58335648 -.00000433  00000+0  00000+0 0  9995
2 40484  65.0744 355.0562 8697278 159.7269  74.8872  0.28501777  1385
MMS 4                   
1 40485U 15011D   25171.58335648 -.00000433  00000+0  00000+0 0  9996
2 40485  65.0693 355.0694 8698278 159.7182  74.8197  0.28502740  1381
ASTROSAT                
1 40930U 15052A   25170.36219141  .00001583  00000+0  11447-3 0  9997
2 40930   5.9962 244.9010 0008761 257.8354 102.0793 14.81447041525913
DAMPE                   
1 41173U 15078A   25171.53192403  .00001067  00000+0  40006-4 0  9997
2 41173  97.4476 170.7122 0010604 280.5940  79.4105 15.29469498529249
PISAT                   
1 41784U 16059B   25171.46519981  .00000697  00000+0  12927-3 0  9999
2 41784  97.8150 182.8239 0028052 281.2628  78.5425 14.67960333466655
HXMT (HUIYAN)           
1 42758U 17034A   25171.60342987  .00004173  00000+0  23596-3 0  9998
2 42758  43.0155  29.4888 0034356  19.1524 341.0606 15.13889712442777
FLYING LAPTOP           
1 42831U 17042G   25171.60209045  .00001704  00000+0  14593-3 0  9990
2 42831  97.4060 338.6406 0010160 271.4745  88.5314 14.98770992432255
ZHANGHENG 1-01 (CSES-1) 
1 43194U 18015C   25171.59341408  .00006736  00000+0  30613-3 0  9993
2 43194  97.6498 325.8983 0012815 120.2035 240.0471 15.21024549409682
SALSAT                  
1 46495U 20068K   25171.39236996  .00005279  00000+0  22816-3 0  9991
2 46495  97.8604 149.9207 0012893 120.7185 239.5322 15.22873261260172
IXPE                    
1 49954U 21121A   25171.58335648  .00008963  00000+0  54407-3 0  9994
2 49954   0.2295 162.3719 0007587  24.3068 325.0335 15.05595512  5778
